STARLINK-3625           
1 51777U 22017K   22081.91668981 -.00011297  00000+0 -75982-4 0  9996
2 51777  53.2175  18.5342 0001043  68.6212 205.0231 15.73262569  3707
STARLINK-3615           
1 51778U 22017L   22081.91668981  .00025466  00000+0  18526-3 0  9998
2 51778  53.2209  18.1846 0001238  78.5240   8.7007 15.73206495  3714
STARLINK-3611           
1 51779U 22017M   22081.91668981 -.00027433  00000+0 -19100-3 0  9996
2 51779  53.2173  18.5306 0001097  64.4309 211.1804 15.73283113  3709
STARLINK-3617           
1 51780U 22017N   22081.91668981  .00020862  00000+0  15289-3 0  9999
2 51780  53.2179  18.5260 0000955  75.4913 202.6750 15.73169299  3704
STARLINK-3580           
1 51781U 22017P   22081.91668981 -.00043288  00000+0 -30471-3 0  9999
2 51781  53.2188  18.5295 0001104  70.0397 206.1772 15.73267979  3704
STARLINK-3616           
1 51782U 22017Q   22081.91668981 -.00716819  00000+0 -70089-2 0  9995
2 51782  53.2178  18.5667 0001271  64.8789 178.8880 15.67667837  3703
STARLINK-3628           
1 51783U 22017R   22081.91668981  .00025522  00000+0  18582-3 0  9999
2 51783  53.2175  18.5268 0001292  82.9812 194.5238 15.73185528  3700
STARLINK-3632           
1 51784U 22017S   22081.91668981 -.00717030  00000+0 -69742-2 0  9997
2 51784  53.2178  18.5660 0001364  55.0660 190.9869 15.67795756  3705
STARLINK-3646           
1 51785U 22017T   22081.91668981  .00025856  00000+0  18807-3 0  9991
2 51785  53.2177  18.5241 0001375  74.1145 204.6999 15.73200247  3702
STARLINK-3638           
1 51786U 22017U   22081.91668981 -.00717018  00000+0 -69013-2 0  9996
2 51786  53.2178  18.5645 0001273  65.2443 185.2654 15.68051380  3709
STARLINK-3619           
1 51787U 22017V   22081.91668981 -.00716793  00000+0 -70449-2 0  9991
2 51787  53.2178  18.5672 0001529  45.9415 195.5010 15.67540002  3701
STARLINK-3641           
1 51788U 22017W   22081.91668981 -.00717535  00000+0 -67982-2 0  9995
2 51788  53.2178  18.5615 0001287  61.8890 195.0178 15.68435077  3700
STARLINK-3639           
1 51789U 22017X   22081.91668981 -.00716971  00000+0 -69372-2 0  9994
2 51789  53.2178  18.5652 0001281  64.5413 183.7592 15.67923552  3700
STARLINK-3631           
1 51790U 22017Y   22081.91668981 -.00717473  00000+0 -67619-2 0  9996
2 51790  53.2178  18.5603 0001210  72.3451 186.6173 15.68562861  3709
STARLINK-3602           
1 51791U 22017Z   22081.91668981 -.00717315  00000+0 -68680-2 0  9991
2 51791  53.2178  18.5635 0001317  58.2945 194.3860 15.68179334  3702
STARLINK-3626           
1 51792U 22017AA  22081.91668981 -.00717772  00000+0 -66936-2 0  9991
2 51792  53.2178  18.5578 0001246  66.6790 196.2794 15.68818640  3708
STARLINK-3633           
1 51793U 22017AB  22081.91668981 -.00717353  00000+0 -68324-2 0  9990
2 51793  53.2178  18.5625 0001253  66.6416 188.1712 15.68307191  3709
STARLINK-3573           
1 51794U 22017AC  22081.91668981 -.00717902  00000+0 -66244-2 0  9990
2 51794  53.2178  18.5549 0001162  87.5084 179.2924 15.69074320  3709
STARLINK-3586           
1 51795U 22017AD  22081.91668981 -.00717896  00000+0 -66595-2 0  9992
2 51795  53.2178  18.5563 0001212  70.9169 193.9818 15.68946516  3701
STARLINK-3630           
1 51796U 22017AE  22081.91668981 -.00716570  00000+0 -71766-2 0  9997
2 51796  53.2178  18.5471 0001332  60.2662 184.3817 15.67080689  3705
STARLINK-3627           
1 51797U 22017AF  22081.91668981 -.00717773  00000+0 -67292-2 0  9993
2 51797  53.2178  18.5590 0001228  67.7996 193.1800 15.68690826  3705
STARLINK-3634           
1 51798U 22017AG  22081.91668981 -.00716792  00000+0 -71415-2 0  9996
2 51798  53.2178  18.5467 0001367  55.6359 191.4743 15.67208632  3708
STARLINK-3637           
1 51799U 22017AH  22081.91668981 -.00718127  00000+0 -65914-2 0  9998
2 51799  53.2178  18.5533 0001212  70.2093 198.4550 15.69202237  3700
STARLINK-3600           
1 51800U 22017AJ  22081.91668981 -.00716865  00000+0 -70782-2 0  9997
2 51800  53.2178  18.5456 0001225  73.1050 178.3494 15.67429950  3701
STARLINK-3592           
1 51801U 22017AK  22081.91668981 -.00716420  00000+0 -72126-2 0  9999
2 51801  53.2178  18.5473 0001296  63.2470 178.9000 15.66952813  3702
STARLINK-3557           
1 51802U 22017AL  22081.91668981 -.00717879  00000+0 -67529-2 0  9990
2 51802  53.2178  18.5460 0001166  84.7722 182.3670 15.68610248  3700
STARLINK-3544           
1 51803U 22017AM  22081.91668981 -.00716922  00000+0 -71058-2 0  9991
2 51803  53.2178  18.5462 0001294  61.6729 187.8613 15.67336500  3708
STARLINK-3601           
1 51804U 22017AN  22081.91668981  .00023371  00000+0  17035-3 0  9995
2 51804  53.2207  18.4810 0001451  75.7689 226.9344 15.73217093  3702
STARLINK-3605           
1 51805U 22017AP  22081.91668981  .00024371  00000+0  17753-3 0  9994
2 51805  53.2181  18.4987 0001033  72.3064 219.2872 15.73203394  3705
STARLINK-3581           
1 51806U 22017AQ  22081.91668981  .00023366  00000+0  17031-3 0  9997
2 51806  53.2188  18.4931 0000988  76.6728 218.0886 15.73217896  3708
STARLINK-3606           
1 51807U 22017AR  22081.91668981  .00024034  00000+0  17528-3 0  9992
2 51807  53.2187  18.4961 0001134  83.4649 209.3507 15.73185430  3704
STARLINK-3609           
1 51808U 22017AS  22081.91668981  .00020839  00000+0  15233-3 0  9993
2 51808  53.2188  18.4903 0001080  90.4175 205.6038 15.73230134  3704
STARLINK-3607           
1 51809U 22017AT  22081.91668981 -.00019715  00000+0 -13610-3 0  9994
2 51809  53.2183  18.4950 0001030  84.7867 208.6728 15.73248538  3707
STARLINK-3613           
1 51810U 22017AU  22081.91668981  .00023927  00000+0  17457-3 0  9997
2 51810  53.2187  18.4876 0001117  64.0014 233.3082 15.73178387  3703
STARLINK-3569           
1 51811U 22017AV  22081.91668981 -.00040332  00000+0 -28359-3 0  9992
2 51811  53.2185  18.4910 0001110  91.4227 203.9436 15.73261081  3704
STARLINK-3610           
1 51812U 22017AW  22081.91668981  .00022006  00000+0  16063-3 0  9998
2 51812  53.2175  18.4865 0000623 106.8691 191.0009 15.73224014  3705
STARLINK-3552           
1 51813U 22017AX  22081.91668981  .00022126  00000+0  16177-3 0  9998
2 51813  53.2184  18.4885 0001139  99.2929 197.3458 15.73181970  3700
STARLINK-3599           
1 51814U 22017AY  22081.91668981  .00030913  00000+0  22375-3 0  9999
2 51814  53.2169  18.4841 0001106  92.6319 206.6618 15.73211479  3700
STARLINK-3604           
1 51815U 22017AZ  22081.91668981 -.00041866  00000+0 -29467-3 0  9990
2 51815  53.2182  18.4844 0000920  71.0446 227.5255 15.73255863  3708
STARLINK-3603           
1 51816U 22017BA  22081.91668981 -.00006924  00000+0 -44894-4 0  9999
2 51816  53.2188  18.4829 0001000  93.7531 206.1188 15.73233503  3709
STARLINK-3596           
1 51817U 22017BB  22081.19266588 -.00069132  00000+0 -27977-3 0  9999
2 51817  53.2226  20.1805 0007163 274.9117  85.1091 15.85514513  5117
FALCON 9 DEB            
1 51818U 22017BC  22081.88106307  .00284480  43718-4  64231-3 0  9993
2 51818  53.2312  15.9364 0003204 344.4160  15.6772 15.97155935  4013
FALCON 9 DEB            
1 51819U 22017BD  22081.86716474  .00318240  53139-4  64831-3 0  9990
2 51819  53.2279  15.8353 0002550 276.2665  83.8076 15.98978326  4010
FALCON 9 DEB            
1 51820U 22017BE  22081.53606446  .00302974  49753-4  57802-3 0  9997
2 51820  53.2246  17.3048 0005920 303.5620  56.4847 16.00109371  3968
FALCON 9 DEB            
1 51821U 22017BF  22081.78266400  .00314530  52998-4  58957-3 0  9995
2 51821  53.2205  15.9904 0005503 280.8955  79.1457 16.00414317  4008
L-SAR 01B               
1 51822U 22018A   22081.69368220 -.00000056  00000+0 -20201-6 0  9993
2 51822  97.8101  90.2995 0001681  84.2497 275.8897 14.88413273  3527
CZ-4C R/B               
1 51823U 22018B   22081.99621033  .00005514  00000+0  20510-3 0  9993
2 51823  97.8625  91.9932 0131770 318.3329  40.7931 15.20138572  3651
2022-019A               
1 51824U 22019A   22081.80952071  .00002450  00000+0  15965-3 0  9998
2 51824  97.5190 158.1257 0020787 184.7660 315.2799 15.08670229  3579
2022-019B               
1 51825U 22019B   22081.93354583  .00001893  00000+0  12360-3 0  9993
2 51825  97.5180 158.2522 0018955 180.0666 294.8386 15.08912130  3589
2022-019C               
1 51826U 22019C   22081.97405093  .00002480  00000+0  15975-3 0  9999
2 51826  97.5171 158.2940 0018214 181.1979 170.8031 15.09132208  3582
2022-019D               
1 51827U 22019D   22081.97229167  .00001744  00000+0  11345-3 0  9995
2 51827  97.5184 158.3012 0016800 180.6018 167.7305 15.09180010  3588
2022-019E               
1 51828U 22019E   22081.92881885  .00002427  00000+0  15598-3 0  9995
2 51828  97.5179 158.2590 0017703 182.7317 292.6166 15.09235226  3584
2022-019F               
1 51829U 22019F   22081.79932225  .00003640  00000+0  23124-3 0  9998
2 51829  97.5224 158.1483 0017251 183.0427 316.4507 15.09355574  3561
2022-019G               
1 51830U 22019G   22081.79930306  .00003378  00000+0  21482-3 0  9991
2 51830  97.5150 158.1263 0018050 183.1339 316.3194 15.09353122  3566
2022-019H               
1 51831U 22019H   22081.92712624  .00002194  00000+0  14097-3 0  9997
2 51831  97.5186 158.2593 0017905 191.1944 284.7126 15.09343363  3583
2022-019J               
1 51832U 22019J   22081.96877315  .00001427  00000+0  93124-4 0  9998
2 51832  97.5172 158.2997 0018405 189.3260 153.4071 15.09338440  3584
2022-019K               
1 51833U 22019K   22081.85959363  .00002813  00000+0  17805-3 0  9992
2 51833  97.5150 158.1985 0015905 186.8517 310.6054 15.09693593  3576
2022-019L               
1 51834U 22019L   22081.85959139  .00002096  00000+0  13377-3 0  9997
2 51834  97.5185 158.2151 0016612 189.0329 308.1169 15.09669860  3572
2022-019M               
1 51835U 22019M   22081.91662938  .00002154  00000+0  13729-3 0  9999
2 51835  97.5188 158.2605 0016499 189.2228 258.2925 15.09677974  3584
